{
  "type": "FeatureCollection",
  "features": [
    {
      "type": "Feature",
      "properties": {
        "norad_id": 34003,
        "name": "COSMOS 2251 DEB",
        "group": "cosmos-2251-debris",
        "lat": 15.699966983449182,
        "lon": 79.09090179589249,
        "alt_km": 1123.8963092557933,
        "timestamp": "2025-12-25T11:37:44.832805+00:00",
        "meta_object_name": "COSMOS 2251 DEB",
        "meta_object_id": "1993-036GN",
        "meta_epoch": "2025-12-24T19:14:32.465760",
        "meta_mean_motion": 13.84214835,
        "meta_eccentricity": 0.02753294,
        "meta_inclination": 74.0775,
        "meta_ra_of_asc_node": 264.8421,
        "meta_arg_of_pericenter": 14.14,
        "meta_mean_anomaly": 346.7234,
        "meta_ephemeris_type": 0,
        "meta_classification_type": "U",
        "meta_norad_cat_id": 34003,
        "meta_element_set_no": 999,
        "meta_rev_at_epoch": 84592,
        "meta_bstar": 0.0018055995,
        "meta_mean_motion_dot": 2.68e-05,
        "meta_mean_motion_ddot": 0,
        "tle_line1": "1 34003U 93036GN  25358.80176465  .00002680  00000+0  18056-2 0  9998",
        "tle_line2": "2 34003  74.0775 264.8421 0275329  14.1400 346.7234 13.84214835845923"
      },
      "geometry": {
        "type": "Point",
        "coordinates": [
          79.09090179589249,
          15.699966983449182
        ]
      }
    },
    {
      "type": "Feature",
      "properties": {
        "norad_id": 34004,
        "name": "COSMOS 2251 DEB",
        "group": "cosmos-2251-debris",
        "lat": -67.90758118817534,
        "lon": 154.05925789408664,
        "alt_km": 718.6646910801774,
        "timestamp": "2025-12-25T11:37:44.832815+00:00",
        "meta_object_name": "COSMOS 2251 DEB",
        "meta_object_id": "1993-036GP",
        "meta_epoch": "2025-12-24T21:12:02.718720",
        "meta_mean_motion": 14.49115551,
        "meta_eccentricity": 0.0033424,
        "meta_inclination": 74.0358,
        "meta_ra_of_asc_node": 290.3378,
        "meta_arg_of_pericenter": 301.043,
        "meta_mean_anomaly": 58.7449,
        "meta_ephemeris_type": 0,
        "meta_classification_type": "U",
        "meta_norad_cat_id": 34004,
        "meta_element_set_no": 999,
        "meta_rev_at_epoch": 88206,
        "meta_bstar": 0.0012662,
        "meta_mean_motion_dot": 4.823e-05,
        "meta_mean_motion_ddot": 0,
        "tle_line1": "1 34004U 93036GP  25358.88336480  .00004823  00000+0  12662-2 0  9990",
        "tle_line2": "2 34004  74.0358 290.3378 0033424 301.0430  58.7449 14.49115551882066"
      },
      "geometry": {
        "type": "Point",
        "coordinates": [
          154.05925789408664,
          -67.90758118817534
        ]
      }
    },
    {
      "type": "Feature",
      "properties": {
        "norad_id": 34005,
        "name": "COSMOS 2251 DEB",
        "group": "cosmos-2251-debris",
        "lat": 50.08961178894438,
        "lon": -9.902266431287932,
        "alt_km": 767.6635118046079,
        "timestamp": "2025-12-25T11:37:44.832825+00:00",
        "meta_object_name": "COSMOS 2251 DEB",
        "meta_object_id": "1993-036GQ",
        "meta_epoch": "2025-12-24T23:56:48.964416",
        "meta_mean_motion": 14.40312708,
        "meta_eccentricity": 0.0021207,
        "meta_inclination": 74.0432,
        "meta_ra_of_asc_node": 190.9995,
        "meta_arg_of_pericenter": 307.1606,
        "meta_mean_anomaly": 176.9752,
        "meta_ephemeris_type": 0,
        "meta_classification_type": "U",
        "meta_norad_cat_id": 34005,
        "meta_element_set_no": 999,
        "meta_rev_at_epoch": 88555,
        "meta_bstar": 0.00010482,
        "meta_mean_motion_dot": 3.06e-06,
        "meta_mean_motion_ddot": 0,
        "tle_line1": "1 34005U 93036GQ  25358.99778894  .00000306  00000+0  10482-3 0  9993",
        "tle_line2": "2 34005  74.0432 190.9995 0021207 307.1606 176.9752 14.40312708885559"
      },
      "geometry": {
        "type": "Point",
        "coordinates": [
          -9.902266431287932,
          50.08961178894438
        ]
      }
    },
    {
      "type": "Feature",
      "properties": {
        "norad_id": 34006,
        "name": "COSMOS 2251 DEB",
        "group": "cosmos-2251-debris",
        "lat": 25.89072820495318,
        "lon": 125.58261293766792,
        "alt_km": 571.7178566731009,
        "timestamp": "2025-12-25T11:37:44.832835+00:00",
        "meta_object_name": "COSMOS 2251 DEB",
        "meta_object_id": "1993-036GR",
        "meta_epoch": "2025-12-24T18:25:22.382688",
        "meta_mean_motion": 14.95558807,
        "meta_eccentricity": 0.00116588,
        "meta_inclination": 74.0534,
        "meta_ra_of_asc_node": 119.05,
        "meta_arg_of_pericenter": 50.1684,
        "meta_mean_anomaly": 78.6177,
        "meta_ephemeris_type": 0,
        "meta_classification_type": "U",
        "meta_norad_cat_id": 34006,
        "meta_element_set_no": 999,
        "meta_rev_at_epoch": 88848,
        "meta_bstar": 0.003601603,
        "meta_mean_motion_dot": 0.00040203,
        "meta_mean_motion_ddot": 0,
        "tle_line1": "1 34006U 93036GR  25358.76762017  .00040203  00000+0  36016-2 0  9999",
        "tle_line2": "2 34006  74.0534 119.0500 0011658  50.1684  78.6177 14.95558807888483"
      },
      "geometry": {
        "type": "Point",
        "coordinates": [
          125.58261293766792,
          25.89072820495318
        ]
      }
    },
    {
      "type": "Feature",
      "properties": {
        "norad_id": 34007,
        "name": "COSMOS 2251 DEB",
        "group": "cosmos-2251-debris",
        "lat": 12.646026798912906,
        "lon": -33.95225915558716,
        "alt_km": 672.7308200328562,
        "timestamp": "2025-12-25T11:37:44.832845+00:00",
        "meta_object_name": "COSMOS 2251 DEB",
        "meta_object_id": "1993-036GS",
        "meta_epoch": "2025-12-24T22:27:24.824736",
        "meta_mean_motion": 14.64870558,
        "meta_eccentricity": 0.004426,
        "meta_inclination": 74.0198,
        "meta_ra_of_asc_node": 323.4174,
        "meta_arg_of_pericenter": 94.3833,
        "meta_mean_anomaly": 266.2395,
        "meta_ephemeris_type": 0,
        "meta_classification_type": "U",
        "meta_norad_cat_id": 34007,
        "meta_element_set_no": 999,
        "meta_rev_at_epoch": 89258,
        "meta_bstar": 0.00080406,
        "meta_mean_motion_dot": 4.33e-05,
        "meta_mean_motion_ddot": 0,
        "tle_line1": "1 34007U 93036GS  25358.93570399  .00004330  00000+0  80406-3 0  9993",
        "tle_line2": "2 34007  74.0198 323.4174 0044260  94.3833 266.2395 14.64870558892588"
      },
      "geometry": {
        "type": "Point",
        "coordinates": [
          -33.95225915558716,
          12.646026798912906
        ]
      }
    },
    {
      "type": "Feature",
      "properties": {
        "norad_id": 34008,
        "name": "COSMOS 2251 DEB",
        "group": "cosmos-2251-debris",
        "lat": 61.37128222527867,
        "lon": -21.143809578944722,
        "alt_km": 785.1179032735326,
        "timestamp": "2025-12-25T11:37:44.832856+00:00",
        "meta_object_name": "COSMOS 2251 DEB",
        "meta_object_id": "1993-036GT",
        "meta_epoch": "2025-12-25T02:59:57.946272",
        "meta_mean_motion": 14.33154543,
        "meta_eccentricity": 0.0024651,
        "meta_inclination": 74.0349,
        "meta_ra_of_asc_node": 307.883,
        "meta_arg_of_pericenter": 301.1452,
        "meta_mean_anomaly": 70.1826,
        "meta_ephemeris_type": 0,
        "meta_classification_type": "U",
        "meta_norad_cat_id": 34008,
        "meta_element_set_no": 999,
        "meta_rev_at_epoch": 88142,
        "meta_bstar": 0.00012801,
        "meta_mean_motion_dot": 3.26e-06,
        "meta_mean_motion_ddot": 0,
        "tle_line1": "1 34008U 93036GT  25359.12497623  .00000326  00000+0  12801-3 0  9999",
        "tle_line2": "2 34008  74.0349 307.8830 0024651 301.1452  70.1826 14.33154543881427"
      },
      "geometry": {
        "type": "Point",
        "coordinates": [
          -21.143809578944722,
          61.37128222527867
        ]
      }
    },
    {
      "type": "Feature",
      "properties": {
        "norad_id": 34009,
        "name": "COSMOS 2251 DEB",
        "group": "cosmos-2251-debris",
        "lat": 67.86267504501907,
        "lon": 88.93280067747348,
        "alt_km": 772.5369968475661,
        "timestamp": "2025-12-25T11:37:44.832866+00:00",
        "meta_object_name": "COSMOS 2251 DEB",
        "meta_object_id": "1993-036GU",
        "meta_epoch": "2025-12-24T23:43:44.531040",
        "meta_mean_motion": 14.33231989,
        "meta_eccentricity": 0.0026987,
        "meta_inclination": 74.0377,
        "meta_ra_of_asc_node": 314.5514,
        "meta_arg_of_pericenter": 20.6885,
        "meta_mean_anomaly": 47.1968,
        "meta_ephemeris_type": 0,
        "meta_classification_type": "U",
        "meta_norad_cat_id": 34009,
        "meta_element_set_no": 999,
        "meta_rev_at_epoch": 88121,
        "meta_bstar": 0.00015717,
        "meta_mean_motion_dot": 4.08e-06,
        "meta_mean_motion_ddot": 0,
        "tle_line1": "1 34009U 93036GU  25358.98870985  .00000408  00000+0  15717-3 0  9999",
        "tle_line2": "2 34009  74.0377 314.5514 0026987  20.6885  47.1968 14.33231989881218"
      },
      "geometry": {
        "type": "Point",
        "coordinates": [
          88.93280067747348,
          67.86267504501907
        ]
      }
    }
  ]
}